ONEWEB-0545             
1 54647U 22166F   26004.00497194 -.00001227  00000+0 -30038-2 0  9998
2 54647  87.9223 276.7356 0001993  76.7612 283.3744 13.21832004149814
ONEWEB-0580             
1 54648U 22166G   26003.75156448  .00002013  00000+0  48418-2 0  9997
2 54648  87.9224 276.7852 0001871  80.3800 279.7545 13.21818191149822
ONEWEB-0582             
1 54649U 22166H   26003.79433269 -.00000193  00000+0 -49837-3 0  9997
2 54649  87.9229 276.7695 0002039  81.3918 278.7447 13.21825764149803
ONEWEB-0583             
1 54650U 22166J   26003.80585072 -.00000037  00000+0 -12190-3 0  9990
2 54650  87.9224 276.7913 0001692  73.6675 286.4645 13.21827495149811
ONEWEB-0584             
1 54651U 22166K   26003.82560227 -.00000007  00000+0 -49543-4 0  9998
2 54651  87.9224 276.7744 0001868  81.5832 278.5514 13.21827657149808
ONEWEB-0585             
1 54652U 22166L   26004.00168383  .00000089  00000+0  18404-3 0  9996
2 54652  87.9225 276.7234 0001499  74.3568 285.7731 13.21826523149835
ONEWEB-0586             
1 54653U 22166M   26003.78776247  .00000052  00000+0  95537-4 0  9998
2 54653  87.9228 276.7913 0001776  76.1788 283.9543 13.21827359149801
ONEWEB-0587             
1 54654U 22166N   26003.79761967 -.00000281  00000+0 -71253-3 0  9997
2 54654  87.9237 276.7474 0001173  71.4520 288.6741 13.21825217149967
